NORAD_CAT_ID,OBJECT_NAME,OBJECT_TYPE,EPOCH,MEAN_MOTION,ECCENTRICITY,INCLINATION,RA_OF_ASC_NODE,ARG_OF_PERICENTER,MEAN_ANOMALY,BSTAR,MEAN_MOTION_DOT,MEAN_MOTION_DDOT,TLE_LINE0,TLE_LINE1,TLE_LINE2,SEMIMAJOR_AXIS,PERIOD,APOGEE,PERIGEE,DECAYED
56769.0,STARLINK-5978,PAYLOAD,2023-11-16 18:05:45,14.98369985,0.0001939,70.002,332.3233,278.5651,81.5288,-0.00083158,-0.00010011,0.0,0 STARLINK-5978,1 56769U 23078C   23320.75399969 -.00010011  00000-0 -83158-3 0  9993,2 56769  70.0020 332.3233 0001939 278.5651  81.5288 14.98369985 26034,6950.069,96.104,573.282,570.587,0.0
56769.0,STARLINK-5978,PAYLOAD,2023-11-17 00:30:17,14.98330461,0.0002621,70.0003,331.65,263.7142,96.3718,9.159e-05,1e-05,0.0,0 STARLINK-5978,1 56769U 23078C   23321.02104158  .00001000  00000-0  91590-4 0  9994,2 56769  70.0003 331.6500 0002621 263.7142  96.3718 14.98330461 26077,6950.191,96.107,573.878,570.235,0.0
56769.0,STARLINK-5978,PAYLOAD,2023-11-17 10:07:07,14.98323597,0.0002287,70.0002,330.6401,261.8287,98.2613,8.341e-06,7e-08,0.0,0 STARLINK-5978,1 56769U 23078C   23321.42160928  .00000007  00000-0  83410-5 0  9994,2 56769  70.0002 330.6401 0002287 261.8287  98.2613 14.98323597 26136,6950.213,96.107,573.667,570.488,0.0
56769.0,STARLINK-5978,PAYLOAD,2023-11-17 18:07:47,14.98322509,0.0001739,70.0017,329.7973,285.971,74.1258,1.1283e-05,4.2e-07,0.0,0 STARLINK-5978,1 56769U 23078C   23321.75541407  .00000042  00000-0  11283-4 0  9992,2 56769  70.0017 329.7973 0001739 285.9710  74.1258 14.98322509 25920,6950.216,96.107,573.29,570.872,0.0
56769.0,STARLINK-5978,PAYLOAD,2023-11-18 10:09:08,14.98322735,0.0002676,69.9995,328.1127,270.8666,89.2186,-1.0101e-05,-2.13e-06,0.0,0 STARLINK-5978,1 56769U 23078C   23322.42301082 -.00000213  00000-0 -10101-4 0  9990,2 56769  69.9995 328.1127 0002676 270.8666  89.2186 14.98322735 26288,6950.215,96.107,573.94,570.22,0.0
56769.0,STARLINK-5978,PAYLOAD,2023-11-18 18:09:48,14.98326309,0.0002451,69.9997,327.2707,272.8917,87.1962,1.3331e-05,6.6e-07,0.0,0 STARLINK-5978,1 56769U 23078C   23322.75680968  .00000066  00000-0  13331-4 0  9991,2 56769  69.9997 327.2707 0002451 272.8917  87.1962 14.98326309 26073,6950.204,96.107,573.773,570.366,0.0
56769.0,STARLINK-5978,PAYLOAD,2023-11-19 03:46:36,14.98329006,0.0002924,69.9989,326.2613,269.5987,90.4837,1.0273e-05,3e-07,0.0,0 STARLINK-5978,1 56769U 23078C   23323.15736556  .00000030  00000-0  10273-4 0  9994,2 56769  69.9989 326.2613 0002924 269.5987  90.4837 14.98329006 26394,6950.196,96.107,574.093,570.029,0.0
56769.0,STARLINK-5978,PAYLOAD,2023-11-19 10:11:08,14.98327015,0.0002809,69.9988,325.5884,270.239,89.8447,2.5047e-05,2.06e-06,0.0,0 STARLINK-5978,1 56769U 23078C   23323.42440704  .00000206  00000-0  25047-4 0  9991,2 56769  69.9988 325.5884 0002809 270.2390  89.8447 14.98327015 26177,6950.202,96.107,574.019,570.115,0.0
56769.0,STARLINK-5978,PAYLOAD,2023-11-19 18:11:49,14.98305954,0.0002952,69.9981,324.7465,281.3617,78.721,0.00051914,6.103e-05,0.0,0 STARLINK-5978,1 56769U 23078C   23323.75821092  .00006103  00000-0  51914-3 0  9993,2 56769  69.9981 324.7465 0002952 281.3617  78.7210 14.98305954 26487,6950.267,96.109,574.184,570.081,0.0
56769.0,STARLINK-5978,PAYLOAD,2023-11-20 03:48:36,14.98341767,0.0003041,69.9978,323.7364,271.3589,88.7222,-6.3592e-05,-8.52e-06,0.0,0 STARLINK-5978,1 56769U 23078C   23324.15875804 -.00000852  00000-0 -63592-4 0  9991,2 56769  69.9978 323.7364 0003041 271.3589  88.7222 14.98341767 26540,6950.157,96.106,574.135,569.908,0.0
56769.0,STARLINK-5978,PAYLOAD,2023-11-20 08:37:00,14.98333704,0.0003015,69.9978,323.2315,268.332,91.7494,9.6926e-05,1.064e-05,0.0,0 STARLINK-5978,1 56769U 23078C   23324.35903909  .00001064  00000-0  96926-4 0  9992,2 56769  69.9978 323.2315 0003015 268.3320  91.7494 14.98333704 26313,6950.181,96.107,574.142,569.951,0.0
56769.0,STARLINK-5978,PAYLOAD,2023-11-21 03:50:37,14.98332428,0.0002919,69.9988,321.2122,265.3608,94.7218,3.7365e-05,3.53e-06,0.0,0 STARLINK-5978,1 56769U 23078C   23325.16015996  .00000353  00000-0  37365-4 0  9994,2 56769  69.9988 321.2122 0002919 265.3608  94.7218 14.98332428 26696,6950.185,96.107,574.079,570.022,0.0
56769.0,STARLINK-5978,PAYLOAD,2023-11-21 10:15:10,14.9832822,0.0002649,69.999,320.5385,263.2199,96.8659,-5.9902e-06,-1.64e-06,0.0,0 STARLINK-5978,1 56769U 23078C   23325.42720414 -.00000164  00000-0 -59902-5 0  9995,2 56769  69.9990 320.5385 0002649 263.2199  96.8659 14.98328220 26477,6950.198,96.107,573.905,570.222,0.0
56769.0,STARLINK-5978,PAYLOAD,2023-11-22 03:52:38,14.98338647,0.0002801,69.9987,318.6868,269.5533,90.5305,-8.2729e-05,-1.08e-05,0.0,0 STARLINK-5978,1 56769U 23078C   23326.16155839 -.00001080  00000-0 -82729-4 0  9990,2 56769  69.9987 318.6868 0002801 269.5533  90.5305 14.98338647 26842,6950.166,96.106,573.978,570.084,0.0
56769.0,STARLINK-5978,PAYLOAD,2023-11-22 10:17:10,14.9833838,0.0002857,69.9987,318.0135,270.1521,89.9311,-9.7463e-05,-1.256e-05,0.0,0 STARLINK-5978,1 56769U 23078C   23326.42859791 -.00001256  00000-0 -97463-4 0  9993,2 56769  69.9987 318.0135 0002857 270.1521  89.9311 14.98338380 26628,6950.167,96.106,574.018,570.046,0.0
56769.0,STARLINK-5978,PAYLOAD,2023-11-23 03:54:39,14.98329438,0.0002896,69.9983,316.1613,264.3881,95.6948,2.767e-05,2.37e-06,0.0,0 STARLINK-5978,1 56769U 23078C   23327.16296061  .00000237  00000-0  27670-4 0  9999,2 56769  69.9983 316.1613 0002896 264.3881  95.6948 14.98329438 26995,6950.195,96.107,574.072,570.047,0.0
56769.0,STARLINK-5978,PAYLOAD,2023-11-23 08:43:04,14.98329203,0.0002886,69.9983,315.6563,263.9052,96.1778,2.4151e-05,1.95e-06,0.0,0 STARLINK-5978,1 56769U 23078C   23327.36324086  .00000195  00000-0  24151-4 0  9994,2 56769  69.9983 315.6563 0002886 263.9052  96.1778 14.98329203 26769,6950.195,96.107,574.066,570.055,0.0
56769.0,STARLINK-5978,PAYLOAD,2023-11-24 03:56:40,14.98330537,0.0002793,69.9985,313.6367,262.2428,97.8414,4.0916e-05,3.95e-06,0.0,0 STARLINK-5978,1 56769U 23078C   23328.16435968  .00000395  00000-0  40916-4 0  9994,2 56769  69.9985 313.6367 0002793 262.2428  97.8414 14.98330537 27147,6950.191,96.107,573.997,570.115,0.0
56769.0,STARLINK-5978,PAYLOAD,2023-11-24 08:45:04,14.98330442,0.0002908,69.9981,313.1305,268.1564,91.9262,3.5764e-05,3.34e-06,0.0,0 STARLINK-5978,1 56769U 23078C   23328.36464033  .00000334  00000-0  35764-4 0  9999,2 56769  69.9981 313.1305 0002908 268.1564  91.9262 14.98330442 26919,6950.192,96.107,574.078,570.035,0.0
56769.0,STARLINK-5978,PAYLOAD,2023-11-25 03:58:41,14.98328632,0.0002923,69.998,311.1108,268.904,91.1784,4.4186e-05,4.34e-06,0.0,0 STARLINK-5978,1 56769U 23078C   23329.16576176  .00000434  00000-0  44186-4 0  9999,2 56769  69.9980 311.1108 0002923 268.9040  91.1784 14.98328632 27292,6950.197,96.107,574.094,570.031,0.0
56769.0,STARLINK-5978,PAYLOAD,2023-11-25 08:47:05,14.98329825,0.0002918,69.998,310.6059,269.0009,91.0816,5.6565e-05,5.82e-06,0.0,0 STARLINK-5978,1 56769U 23078C   23329.36604118  .00000582  00000-0  56565-4 0  9997,2 56769  69.9980 310.6059 0002918 269.0009  91.0816 14.98329825 27067,6950.193,96.107,574.086,570.03,0.0
56769.0,STARLINK-5978,PAYLOAD,2023-11-26 02:24:34,14.98335546,0.0002908,69.9981,308.7537,270.6466,89.436,9.7611e-05,1.072e-05,0.0,0 STARLINK-5978,1 56769U 23078C   23330.10039620  .00001072  00000-0  97611-4 0  9993,2 56769  69.9981 308.7537 0002908 270.6466  89.4360 14.98335546 27434,6950.176,96.107,574.062,570.02,0.0
56769.0,STARLINK-5978,PAYLOAD,2023-11-26 08:49:06,14.98335759,0.00026,69.9985,308.0803,267.8019,92.2842,0.00010855,1.203e-05,0.0,0 STARLINK-5978,1 56769U 23078C   23330.36743579  .00001203  00000-0  10855-3 0  9996,2 56769  69.9985 308.0803 0002600 267.8019  92.2842 14.98335759 27217,6950.175,96.107,573.847,570.233,0.0
56769.0,STARLINK-5978,PAYLOAD,2023-11-27 04:02:43,14.98332428,0.0002605,69.999,306.0608,265.5295,94.5567,8.3765e-05,9.07e-06,0.0,0 STARLINK-5978,1 56769U 23078C   23331.16855595  .00000907  00000-0  83765-4 0  9998,2 56769  69.9990 306.0608 0002605 265.5295  94.5567 14.98332428 27590,6950.185,96.107,573.861,570.24,0.0
56769.0,STARLINK-5978,PAYLOAD,2023-11-27 08:51:07,14.98329376,0.0002467,69.9995,305.5551,268.2156,91.8721,6.2107e-05,6.48e-06,0.0,0 STARLINK-5978,1 56769U 23078C   23331.36883864  .00000648  00000-0  62107-4 0  9999,2 56769  69.9995 305.5551 0002467 268.2156  91.8721 14.98329376 27363,6950.195,96.107,573.774,570.345,0.0
56769.0,STARLINK-5978,PAYLOAD,2023-11-28 02:28:36,14.98323147,0.0002293,69.9998,303.7036,259.3267,100.7634,-7.5294e-05,-9.91e-06,0.0,0 STARLINK-5978,1 56769U 23078C   23332.10320541 -.00000991  00000-0 -75294-4 0  9994,2 56769  69.9998 303.7036 0002293 259.3267 100.7634 14.98323147 27739,6950.214,96.107,573.673,570.485,0.0
56769.0,STARLINK-5978,PAYLOAD,2023-11-28 08:53:09,14.98322988,0.0002077,70.0004,303.0312,257.5419,102.5508,-4.4519e-05,-6.24e-06,0.0,0 STARLINK-5978,1 56769U 23078C   23332.37024737 -.00000624  00000-0 -44519-4 0  9990,2 56769  70.0004 303.0312 0002077 257.5419 102.5508 14.98322988 27517,6950.215,96.107,573.523,570.636,0.0
56769.0,STARLINK-5978,PAYLOAD,2023-11-29 04:06:45,14.98331741,0.0002589,69.9995,301.0118,256.36,103.7271,4.6586e-05,4.63e-06,0.0,0 STARLINK-5978,1 56769U 23078C   23333.17135759  .00000463  00000-0  46586-4 0  9991,2 56769  69.9995 301.0118 0002589 256.3600 103.7271 14.98331741 27890,6950.188,96.107,573.852,570.253,0.0
56769.0,STARLINK-5978,PAYLOAD,2023-11-29 07:19:01,14.98327215,0.0002317,70.0005,300.676,245.4826,114.6092,4.5704e-05,4.52e-06,0.0,0 STARLINK-5978,1 56769U 23078C   23333.30488151  .00000452  00000-0  45704-4 0  9992,2 56769  70.0005 300.6760 0002317 245.4826 114.6092 14.98327215 27658,6950.202,96.107,573.677,570.456,0.0
56769.0,STARLINK-5978,PAYLOAD,2023-11-30 04:08:46,14.98317573,0.0002917,70.0038,298.4921,195.066,165.0412,7.9982e-05,8.61e-06,0.0,0 STARLINK-5978,1 56769U 23078C   23334.17276440  .00000861  00000-0  79982-4 0  9993,2 56769  70.0038 298.4921 0002917 195.0660 165.0412 14.98317573 28045,6950.231,96.108,574.124,570.069,0.0
